NORAD_CAT_ID,OBJECT_NAME,OBJECT_TYPE,EPOCH,MEAN_MOTION,ECCENTRICITY,INCLINATION,RA_OF_ASC_NODE,ARG_OF_PERICENTER,MEAN_ANOMALY,BSTAR,MEAN_MOTION_DOT,MEAN_MOTION_DDOT,TLE_LINE0,TLE_LINE1,TLE_LINE2,SEMIMAJOR_AXIS,PERIOD,APOGEE,PERIGEE,DECAYED
52702.0,STARLINK-4033,PAYLOAD,2023-09-27 01:51:10,15.08832665,0.0001467,53.2154,205.2225,82.3323,277.7836,-4.8907e-05,-1.066e-05,0.0,0 STARLINK-4033,1 52702U 22053AY  23270.07720074 -.00001066  00000-0 -48907-4 0  9996,2 52702  53.2154 205.2225 0001467  82.3323 277.7836 15.08832665 75629,6917.903,95.438,540.783,538.753,0.0
52702.0,STARLINK-4033,PAYLOAD,2023-09-27 03:26:33,15.08830796,0.0001578,53.2153,204.9253,83.5255,276.5917,0.00021651,3.159e-05,0.0,0 STARLINK-4033,1 52702U 22053AY  23270.14344164  .00003159  00000-0  21651-3 0  9995,2 52702  53.2153 204.9253 0001578  83.5255 276.5917 15.08830796 76042,6917.909,95.438,540.865,538.682,0.0
52702.0,STARLINK-4033,PAYLOAD,2023-09-27 12:58:52,15.08822092,0.000164,53.2156,203.1407,91.6893,268.4287,0.00034526,5.208e-05,0.0,0 STARLINK-4033,1 52702U 22053AY  23270.54088866  .00005208  00000-0  34526-3 0  9995,2 52702  53.2156 203.1407 0001640  91.6893 268.4287 15.08822092 75695,6917.935,95.439,540.935,538.666,0.0
52702.0,STARLINK-4033,PAYLOAD,2023-09-28 00:06:35,15.08823132,0.0001684,53.2158,201.0588,93.6324,266.486,0.00036168,5.47e-05,0.0,0 STARLINK-4033,1 52702U 22053AY  23271.00457531  .00005470  00000-0  36168-3 0  9991,2 52702  53.2158 201.0588 0001684  93.6324 266.4860 15.08823132 76178,6917.932,95.439,540.962,538.632,0.0
52702.0,STARLINK-4033,PAYLOAD,2023-09-28 19:11:13,15.08843237,0.0001663,53.2164,197.4885,100.4185,259.6995,0.0006971,0.00010825,0.0,0 STARLINK-4033,1 52702U 22053AY  23271.79945660  .00010825  00000-0  69710-3 0  9991,2 52702  53.2164 197.4885 0001663 100.4185 259.6995 15.08843237 75880,6917.87,95.437,540.886,538.585,0.0
52702.0,STARLINK-4033,PAYLOAD,2023-09-28 22:21:59,15.0884914,0.0001666,53.2162,196.8959,95.6951,264.4231,0.00072817,0.00011323,0.0,0 STARLINK-4033,1 52702U 22053AY  23271.93193501  .00011323  00000-0  72817-3 0  9992,2 52702  53.2162 196.8959 0001666  95.6951 264.4231 15.08849140 76317,6917.852,95.437,540.87,538.565,0.0
52702.0,STARLINK-4033,PAYLOAD,2023-09-29 04:43:31,15.08860942,0.0001699,53.2164,195.7057,96.7932,263.3254,0.00088649,0.00013857,0.0,0 STARLINK-4033,1 52702U 22053AY  23272.19689113  .00013857  00000-0  88649-3 0  9994,2 52702  53.2164 195.7057 0001699  96.7932 263.3254 15.08860942 75947,6917.816,95.436,540.857,538.506,0.0
52702.0,STARLINK-4033,PAYLOAD,2023-09-30 01:23:31,15.08867621,0.0001271,53.2167,191.8404,94.1137,266.0,0.00079392,0.00012379,0.0,0 STARLINK-4033,1 52702U 22053AY  23273.05800264  .00012379  00000-0  79392-3 0  9995,2 52702  53.2167 191.8404 0001271  94.1137 266.0000 15.08867621 76073,6917.796,95.436,540.54,538.782,0.0
52702.0,STARLINK-4033,PAYLOAD,2023-09-30 18:52:46,15.08840678,0.0001518,53.2177,188.5693,89.1786,270.9381,0.0004958,7.612e-05,0.0,0 STARLINK-4033,1 52702U 22053AY  23273.78664746  .00007612  00000-0  49580-3 0  9998,2 52702  53.2177 188.5693 0001518  89.1786 270.9381 15.08840678 76186,6917.878,95.438,540.793,538.693,0.0
52702.0,STARLINK-4033,PAYLOAD,2023-10-01 10:46:37,15.08843635,0.0001313,53.2169,185.5945,82.1683,277.9458,0.00016801,2.387e-05,0.0,0 STARLINK-4033,1 52702U 22053AY  23274.44904895  .00002387  00000-0  16801-3 0  9998,2 52702  53.2169 185.5945 0001313  82.1683 277.9458 15.08843635 76285,6917.869,95.437,540.643,538.826,0.0
52702.0,STARLINK-4033,PAYLOAD,2023-10-01 21:54:19,15.08849006,0.0001259,53.2168,183.5136,73.9186,286.1945,0.00033673,5.077e-05,0.0,0 STARLINK-4033,1 52702U 22053AY  23274.91272521  .00005077  00000-0  33673-3 0  9999,2 52702  53.2168 183.5136 0001259  73.9186 286.1945 15.08849006 76763,6917.853,95.437,540.589,538.847,0.0
52702.0,STARLINK-4033,PAYLOAD,2023-10-02 01:05:05,15.08857776,0.0001226,53.2158,182.9194,73.7133,286.3994,0.00091399,0.00014295,0.0,0 STARLINK-4033,1 52702U 22053AY  23275.04520442  .00014295  00000-0  91399-3 0  9993,2 52702  53.2158 182.9194 0001226  73.7133 286.3994 15.08857776 76379,6917.826,95.436,540.539,538.843,0.0
52702.0,STARLINK-4033,PAYLOAD,2023-10-02 10:37:24,15.0882651,0.000142,53.2166,181.1358,91.2604,268.8551,-0.00079986,-0.0001299,0.0,0 STARLINK-4033,1 52702U 22053AY  23275.44264784 -.00012990  00000-0 -79986-3 0  9991,2 52702  53.2166 181.1358 0001420  91.2604 268.8551 15.08826510 76438,6917.922,95.438,540.769,538.804,0.0
52702.0,STARLINK-4033,PAYLOAD,2023-10-03 00:55:52,15.08849499,0.0001295,53.2154,178.4597,93.6563,266.4577,0.00070085,0.00010887,0.0,0 STARLINK-4033,1 52702U 22053AY  23276.03880754  .00010887  00000-0  70085-3 0  9990,2 52702  53.2154 178.4597 0001295  93.6563 266.4577 15.08849499 76522,6917.851,95.437,540.612,538.82,0.0
52702.0,STARLINK-4033,PAYLOAD,2023-10-03 10:28:12,15.08842797,0.0001162,53.2143,176.6751,91.2275,268.885,0.0010076,0.00015786,0.0,0 STARLINK-4033,1 52702U 22053AY  23276.43625118  .00015786  00000-0  10076-2 0  9991,2 52702  53.2143 176.6751 0001162  91.2275 268.8850 15.08842797 76589,6917.872,95.437,540.541,538.933,0.0
52702.0,STARLINK-4033,PAYLOAD,2023-10-03 21:35:54,15.08853346,0.0002482,53.2151,174.5945,89.6773,270.4503,0.001448,0.00022841,0.0,0 STARLINK-4033,1 52702U 22053AY  23276.89993790  .00022841  00000-0  14480-2 0  9998,2 52702  53.2151 174.5945 0002482  89.6773 270.4503 15.08853346 77060,6917.84,95.437,541.422,537.988,0.0
52702.0,STARLINK-4033,PAYLOAD,2023-10-04 02:22:03,15.08852945,0.0001462,53.2149,173.7025,97.4573,262.6585,0.0022482,0.00035686,0.0,0 STARLINK-4033,1 52702U 22053AY  23277.09865577  .00035686  00000-0  22482-2 0  9994,2 52702  53.2149 173.7025 0001462  97.4573 262.6585 15.08852945 76683,6917.841,95.437,540.717,538.694,0.0
52702.0,STARLINK-4033,PAYLOAD,2023-10-04 10:18:59,15.08859821,0.0001432,53.2146,172.2154,86.1087,274.0069,0.0018131,0.00028701,0.0,0 STARLINK-4033,1 52702U 22053AY  23277.42985489  .00028701  00000-0  18131-2 0  9992,2 52702  53.2146 172.2154 0001432  86.1087 274.0069 15.08859821 76739,6917.82,95.436,540.675,538.694,0.0
52702.0,STARLINK-4033,PAYLOAD,2023-10-04 21:26:41,15.08854994,0.0001278,53.2137,170.1349,91.0647,269.0492,0.00095837,0.00015004,0.0,0 STARLINK-4033,1 52702U 22053AY  23277.89353194  .00015004  00000-0  95837-3 0  9996,2 52702  53.2137 170.1349 0001278  91.0647 269.0492 15.08854994 77211,6917.835,95.437,540.584,538.815,0.0
52702.0,STARLINK-4033,PAYLOAD,2023-10-05 00:37:27,15.08858462,0.0001406,53.2142,169.5405,89.6621,270.4532,0.00086799,0.0001356,0.0,0 STARLINK-4033,1 52702U 22053AY  23278.02601053  .00013560  00000-0  86799-3 0  9994,2 52702  53.2142 169.5405 0001406  89.6621 270.4532 15.08858462 76821,6917.824,95.436,540.662,538.716,0.0
52702.0,STARLINK-4033,PAYLOAD,2023-10-05 21:17:28,15.08856597,0.000139,53.216,165.6735,108.5279,251.5864,0.00075816,0.00011804,0.0,0 STARLINK-4033,1 52702U 22053AY  23278.88713035  .00011804  00000-0  75816-3 0  9999,2 52702  53.2160 165.6735 0001390 108.5279 251.5864 15.08856597 77361,6917.83,95.437,540.656,538.733,0.0
52702.0,STARLINK-4033,PAYLOAD,2023-10-06 02:03:37,15.0885134,0.0001571,53.2165,164.7783,80.9343,279.1827,0.00064662,0.00010021,0.0,0 STARLINK-4033,1 52702U 22053AY  23279.08585143  .00010021  00000-0  64662-3 0  9996,2 52702  53.2165 164.7783 0001571  80.9343 279.1827 15.08851340 76988,6917.846,95.437,540.798,538.624,0.0
52702.0,STARLINK-4033,PAYLOAD,2023-10-06 10:00:33,15.0883211,0.0001556,53.216,163.2931,89.5999,270.5171,0.00016786,2.384e-05,0.0,0 STARLINK-4033,1 52702U 22053AY  23279.41705482  .00002384  00000-0  16786-3 0  9990,2 52702  53.2160 163.2931 0001556  89.5999 270.5171 15.08832110 77035,6917.905,95.438,540.846,538.693,0.0
52702.0,STARLINK-4033,PAYLOAD,2023-10-06 22:43:38,15.08835118,0.0001609,53.2161,160.9134,98.0436,262.0739,0.00037615,5.703e-05,0.0,0 STARLINK-4033,1 52702U 22053AY  23279.94697644  .00005703  00000-0  37615-3 0  9990,2 52702  53.2161 160.9134 0001609  98.0436 262.0739 15.08835118 77526,6917.895,95.438,540.873,538.647,0.0
52702.0,STARLINK-4033,PAYLOAD,2023-10-07 19:23:39,15.0884343,0.0001583,53.2162,157.0491,95.5118,264.6055,0.00041618,6.342e-05,0.0,0 STARLINK-4033,1 52702U 22053AY  23280.80809960  .00006342  00000-0  41618-3 0  9991,2 52702  53.2162 157.0491 0001583  95.5118 264.6055 15.08843430 77244,6917.87,95.437,540.83,538.64,0.0
52702.0,STARLINK-4033,PAYLOAD,2023-10-07 22:34:26,15.08848309,0.0001416,53.2158,156.4538,84.56,275.5553,0.00060953,9.428e-05,0.0,0 STARLINK-4033,1 52702U 22053AY  23280.94057889  .00009428  00000-0  60953-3 0  9992,2 52702  53.2158 156.4538 0001416  84.5600 275.5553 15.08848309 77674,6917.855,95.437,540.7,538.74,0.0
52702.0,STARLINK-4033,PAYLOAD,2023-10-08 19:14:26,15.08845423,0.0001503,53.216,152.5891,83.7592,276.3572,0.00020703,3.009e-05,0.0,0 STARLINK-4033,1 52702U 22053AY  23281.80169803  .00003009  00000-0  20703-3 0  9996,2 52702  53.2160 152.5891 0001503  83.7592 276.3572 15.08845423 77397,6917.864,95.437,540.769,538.689,0.0
52702.0,STARLINK-4033,PAYLOAD,2023-10-08 20:49:49,15.08846195,0.0001507,53.2161,152.2919,84.2036,275.9128,0.000233,3.423e-05,0.0,0 STARLINK-4033,1 52702U 22053AY  23281.86793782  .00003423  00000-0  23300-3 0  9997,2 52702  53.2161 152.2919 0001507  84.2036 275.9128 15.08846195 77815,6917.861,95.437,540.769,538.684,0.0
52702.0,STARLINK-4033,PAYLOAD,2023-10-09 14:19:04,15.08841065,0.0001419,53.2163,149.0264,98.1493,261.966,3.3578e-05,2.47e-06,0.0,0 STARLINK-4033,1 52702U 22053AY  23282.59657535  .00000247  00000-0  33578-4 0  9993,2 52702  53.2163 149.0264 0001419  98.1493 261.9660 15.08841065 77926,6917.877,95.437,540.724,538.76,0.0
52702.0,STARLINK-4033,PAYLOAD,2023-10-09 19:05:13,15.08830199,0.0001505,53.2169,148.1321,90.3322,269.7843,-0.00017809,-3.12e-05,0.0,0 STARLINK-4033,1 52702U 22053AY  23282.79530032 -.00003120  00000-0 -17809-3 0  9990,2 52702  53.2169 148.1321 0001505  90.3322 269.7843 15.08830199 77540,6917.91,95.438,540.816,538.734,0.0
